NORAD_CAT_ID,OBJECT_NAME,OBJECT_TYPE,EPOCH,MEAN_MOTION,ECCENTRICITY,INCLINATION,RA_OF_ASC_NODE,ARG_OF_PERICENTER,MEAN_ANOMALY,BSTAR,MEAN_MOTION_DOT,MEAN_MOTION_DDOT,TLE_LINE0,TLE_LINE1,TLE_LINE2,SEMIMAJOR_AXIS,PERIOD,APOGEE,PERIGEE,DECAYED
53439.0,STARLINK-4519,PAYLOAD,2023-10-06 13:37:10,15.08838573,0.0001591,53.216,117.3578,98.5651,261.5521,0.00014581,2.033e-05,0.0,0 STARLINK-4519,1 53439U 22097BD  23279.56748149  .00002033  00000-0  14581-3 0  9991,2 53439  53.2160 117.3578 0001591  98.5651 261.5521 15.08838573 65174,6917.885,95.438,540.85,538.649,0.0
53439.0,STARLINK-4519,PAYLOAD,2023-10-06 19:58:43,15.08840176,0.0001552,53.2158,116.1697,89.7339,270.3831,0.00015242,2.139e-05,0.0,0 STARLINK-4519,1 53439U 22097BD  23279.83244216  .00002139  00000-0  15242-3 0  9999,2 53439  53.2158 116.1697 0001552  89.7339 270.3831 15.08840176 64726,6917.88,95.438,540.819,538.671,0.0
53439.0,STARLINK-4519,PAYLOAD,2023-10-07 13:27:57,15.0884033,0.0001581,53.2155,112.8979,89.6888,270.4285,0.00025814,3.823e-05,0.0,0 STARLINK-4519,1 53439U 22097BD  23280.56108366  .00003823  00000-0  25814-3 0  9993,2 53439  53.2155 112.8979 0001581  89.6888 270.4285 15.08840330 65322,6917.879,95.438,540.838,538.651,0.0
53439.0,STARLINK-4519,PAYLOAD,2023-10-07 19:49:29,15.08850676,0.0001368,53.2154,111.7073,86.1512,273.9636,0.00033514,5.051e-05,0.0,0 STARLINK-4519,1 53439U 22097BD  23280.82603885  .00005051  00000-0  33514-3 0  9999,2 53439  53.2154 111.7073 0001368  86.1512 273.9636 15.08850676 65369,6917.848,95.437,540.659,538.766,0.0
53439.0,STARLINK-4519,PAYLOAD,2023-10-08 19:40:16,15.08844381,0.0001374,53.2156,107.2468,83.1027,277.0121,0.00013188,1.812e-05,0.0,0 STARLINK-4519,1 53439U 22097BD  23281.81964088  .00001812  00000-0  13188-3 0  9990,2 53439  53.2156 107.2468 0001374  83.1027 277.0121 15.08844381 65027,6917.867,95.437,540.683,538.781,0.0
53439.0,STARLINK-4519,PAYLOAD,2023-10-09 13:09:31,15.08837226,0.0001577,53.2176,103.9784,92.5939,267.5234,-4.8905e-05,-1.066e-05,0.0,0 STARLINK-4519,1 53439U 22097BD  23282.54828377 -.00001066  00000-0 -48905-4 0  9990,2 53439  53.2176 103.9784 0001577  92.5939 267.5234 15.08837226 65629,6917.889,95.438,540.845,538.663,0.0
53439.0,STARLINK-4519,PAYLOAD,2023-10-09 19:31:04,15.08842822,0.000157,53.2176,102.789,94.6415,265.4757,3.7883e-05,3.15e-06,0.0,0 STARLINK-4519,1 53439U 22097BD  23282.81324230  .00000315  00000-0  37883-4 0  9996,2 53439  53.2176 102.7890 0001570  94.6415 265.4757 15.08842822 65668,6917.872,95.437,540.823,538.651,0.0
53439.0,STARLINK-4519,PAYLOAD,2023-10-10 13:00:18,15.08846231,0.0001585,53.2171,99.5164,91.3473,268.7701,0.00013702,1.894e-05,0.0,0 STARLINK-4519,1 53439U 22097BD  23283.54188113  .00001894  00000-0  13702-3 0  9991,2 53439  53.2171  99.5164 0001585  91.3473 268.7701 15.08846231 65779,6917.861,95.437,540.823,538.63,0.0
53439.0,STARLINK-4519,PAYLOAD,2023-10-10 19:21:50,15.0885104,0.0001537,53.2166,98.3269,92.0695,268.0473,0.00026586,3.947e-05,0.0,0 STARLINK-4519,1 53439U 22097BD  23283.80683836  .00003947  00000-0  26586-3 0  9997,2 53439  53.2166  98.3269 0001537  92.0695 268.0473 15.08851040 65815,6917.847,95.437,540.775,538.648,0.0
53439.0,STARLINK-4519,PAYLOAD,2023-10-11 04:54:09,15.08844394,0.0001604,53.2164,96.5426,78.8406,281.2766,0.00013407,1.847e-05,0.0,0 STARLINK-4519,1 53439U 22097BD  23284.20428128  .00001847  00000-0  13407-3 0  9998,2 53439  53.2164  96.5426 0001604  78.8406 281.2766 15.08844394 65383,6917.867,95.437,540.842,538.622,0.0
53439.0,STARLINK-4519,PAYLOAD,2023-10-11 11:15:42,15.08841112,0.0001904,53.216,95.3549,82.7916,277.3292,0.00010037,1.31e-05,0.0,0 STARLINK-4519,1 53439U 22097BD  23284.46924225  .00001310  00000-0  10037-3 0  9996,2 53439  53.2160  95.3549 0001904  82.7916 277.3292 15.08841112 65919,6917.877,95.437,541.059,538.425,0.0
53439.0,STARLINK-4519,PAYLOAD,2023-10-12 11:06:29,15.08843422,0.0001444,53.2153,90.8924,73.1336,286.9814,0.00011708,1.576e-05,0.0,0 STARLINK-4519,1 53439U 22097BD  23285.46284154  .00001576  00000-0  11708-3 0  9997,2 53439  53.2153  90.8924 0001444  73.1336 286.9814 15.08843422 66066,6917.87,95.437,540.734,538.736,0.0
53439.0,STARLINK-4519,PAYLOAD,2023-10-12 17:28:01,15.08849497,0.0001533,53.2166,89.7024,86.8155,273.3013,0.00012222,1.658e-05,0.0,0 STARLINK-4519,1 53439U 22097BD  23285.72779770  .00001658  00000-0  12222-3 0  9992,2 53439  53.2166  89.7024 0001533  86.8155 273.3013 15.08849497 65616,6917.851,95.437,540.777,538.656,0.0
53439.0,STARLINK-4519,PAYLOAD,2023-10-13 14:08:02,15.08842789,0.000162,53.217,85.8369,82.321,277.7966,-9.4056e-05,-1.785e-05,0.0,0 STARLINK-4519,1 53439U 22097BD  23286.58892050 -.00001785  00000-0 -94056-4 0  9993,2 53439  53.2170  85.8369 0001620  82.3210 277.7966 15.08842789 66231,6917.872,95.437,540.858,538.616,0.0
53439.0,STARLINK-4519,PAYLOAD,2023-10-13 17:18:49,15.08841964,0.0001604,53.2173,85.2425,87.8609,272.2567,0.0001271,1.735e-05,0.0,0 STARLINK-4519,1 53439U 22097BD  23286.72140072  .00001735  00000-0  12710-3 0  9998,2 53439  53.2173  85.2425 0001604  87.8609 272.2567 15.08841964 65763,6917.874,95.437,540.849,538.63,0.0
53439.0,STARLINK-4519,PAYLOAD,2023-10-13 20:29:35,15.0884725,0.0001599,53.2184,84.6466,91.5068,268.6108,0.00010864,1.442e-05,0.0,0 STARLINK-4519,1 53439U 22097BD  23286.85387746  .00001442  00000-0  10864-3 0  9996,2 53439  53.2184  84.6466 0001599  91.5068 268.6108 15.08847250 66278,6917.858,95.437,540.829,538.617,0.0
53439.0,STARLINK-4519,PAYLOAD,2023-10-14 10:48:03,15.08837724,0.0001476,53.2168,81.9674,96.5759,263.5401,7.8496e-05,9.61e-06,0.0,0 STARLINK-4519,1 53439U 22097BD  23287.45004345  .00000961  00000-0  78496-4 0  9995,2 53439  53.2168  81.9674 0001476  96.5759 263.5401 15.08837724 65877,6917.887,95.438,540.773,538.731,0.0
53439.0,STARLINK-4519,PAYLOAD,2023-10-14 13:58:49,15.08846454,0.0001697,53.2172,81.3735,94.063,266.0556,1.4605e-05,-5.6e-07,0.0,0 STARLINK-4519,1 53439U 22097BD  23287.58251993 -.00000056  00000-0  14605-4 0  9990,2 53439  53.2172  81.3735 0001697  94.0630 266.0556 15.08846454 66386,6917.861,95.437,540.9,538.552,0.0
53439.0,STARLINK-4519,PAYLOAD,2023-10-14 15:34:12,15.08842791,0.0001398,53.2175,81.0786,88.8108,271.3044,8.8788e-05,1.126e-05,0.0,0 STARLINK-4519,1 53439U 22097BD  23287.64876053  .00001126  00000-0  88788-4 0  9998,2 53439  53.2175  81.0786 0001398  88.8108 271.3044 15.08842791 66393,6917.872,95.437,540.704,538.77,0.0
53439.0,STARLINK-4519,PAYLOAD,2023-10-15 13:49:37,15.08830536,0.0001372,53.2168,76.9153,90.9855,269.1294,-4.2877e-05,-9.7e-06,0.0,0 STARLINK-4519,1 53439U 22097BD  23288.57612819 -.00000970  00000-0 -42877-4 0  9996,2 53439  53.2168  76.9153 0001372  90.9855 269.1294 15.08830536 66533,6917.909,95.438,540.723,538.825,0.0
53439.0,STARLINK-4519,PAYLOAD,2023-10-15 17:00:23,15.08836212,0.0001365,53.2178,76.3214,90.8488,269.2661,6.573e-05,7.58e-06,0.0,0 STARLINK-4519,1 53439U 22097BD  23288.70860687  .00000758  00000-0  65730-4 0  9994,2 53439  53.2178  76.3214 0001365  90.8488 269.2661 15.08836212 66063,6917.892,95.438,540.701,538.813,0.0
53439.0,STARLINK-4519,PAYLOAD,2023-10-16 13:40:24,15.08838488,0.0001176,53.2175,72.4562,92.5209,267.5918,6.0711e-05,6.78e-06,0.0,0 STARLINK-4519,1 53439U 22097BD  23289.56972825  .00000678  00000-0  60711-4 0  9992,2 53439  53.2175  72.4562 0001176  92.5209 267.5918 15.08838488 66684,6917.885,95.438,540.564,538.936,0.0
53439.0,STARLINK-4519,PAYLOAD,2023-10-16 15:15:47,15.08840418,0.0001171,53.2178,72.1584,89.993,270.1196,6.1747e-05,6.95e-06,0.0,0 STARLINK-4519,1 53439U 22097BD  23289.63596739  .00000695  00000-0  61747-4 0  9995,2 53439  53.2178  72.1584 0001171  89.9930 270.1196 15.08840418 66699,6917.879,95.438,540.554,538.934,0.0
53439.0,STARLINK-4519,PAYLOAD,2023-10-17 08:45:02,15.08834779,0.000115,53.2178,68.8877,96.3244,263.7879,6.296e-05,7.14e-06,0.0,0 STARLINK-4519,1 53439U 22097BD  23290.36461403  .00000714  00000-0  62960-4 0  9996,2 53439  53.2178  68.8877 0001150  96.3244 263.7879 15.08834779 66311,6917.896,95.438,540.557,538.966,0.0
53439.0,STARLINK-4519,PAYLOAD,2023-10-18 02:14:16,15.08839139,0.0001191,53.2189,65.6169,94.7988,265.3141,5.5076e-05,5.89e-06,0.0,0 STARLINK-4519,1 53439U 22097BD  23291.09325213  .00000589  00000-0  55076-4 0  9995,2 53439  53.2189  65.6169 0001191  94.7988 265.3141 15.08839139 66915,6917.883,95.438,540.572,538.924,0.0
53439.0,STARLINK-4519,PAYLOAD,2023-10-18 11:46:35,15.08842027,0.0001291,53.2178,63.8326,90.9936,269.1204,6.4635e-05,7.41e-06,0.0,0 STARLINK-4519,1 53439U 22097BD  23291.49069268  .00000741  00000-0  64635-4 0  9995,2 53439  53.2178  63.8326 0001291  90.9936 269.1204 15.08842027 66484,6917.874,95.437,540.632,538.846,0.0
53439.0,STARLINK-4519,PAYLOAD,2023-10-19 08:26:36,15.08848877,0.0001626,53.2176,59.9645,93.9417,266.1761,0.00011837,1.597e-05,0.0,0 STARLINK-4519,1 53439U 22097BD  23292.35180805  .00001597  00000-0  11837-3 0  9997,2 53439  53.2176  59.9645 0001626  93.9417 266.1761 15.08848877 67105,6917.853,95.437,540.843,538.593,0.0
53439.0,STARLINK-4519,PAYLOAD,2023-10-20 01:55:50,15.08849122,0.0001342,53.2184,56.6965,84.8536,275.261,0.00014638,2.043e-05,0.0,0 STARLINK-4519,1 53439U 22097BD  23293.08044348  .00002043  00000-0  14638-3 0  9998,2 53439  53.2184  56.6965 0001342  84.8536 275.2610 15.08849122 66724,6917.853,95.437,540.646,538.789,0.0
53439.0,STARLINK-4519,PAYLOAD,2023-10-20 08:17:23,15.08843386,0.0002329,53.2176,55.5056,91.4918,268.6341,7.3789e-05,8.86e-06,0.0,0 STARLINK-4519,1 53439U 22097BD  23293.34541163  .00000886  00000-0  73789-4 0  9990,2 53439  53.2176  55.5056 0002329  91.4918 268.6341 15.08843386 66765,6917.87,95.437,541.346,538.124,0.0
53439.0,STARLINK-4519,PAYLOAD,2023-10-21 11:18:56,15.0884508,0.000148,53.2167,50.4526,93.9143,266.2018,5.7892e-05,6.34e-06,0.0,0 STARLINK-4519,1 53439U 22097BD  23294.47148826  .00000634  00000-0  57892-4 0  9992,2 53439  53.2167  50.4526 0001480  93.9143 266.2018 15.08845080 66932,6917.865,95.437,540.754,538.706,0.0
